OBJECT_NAME,OBJECT_ID,EPOCH,MEAN_MOTION,ECCENTRICITY,INCLINATION,RA_OF_ASC_NODE,ARG_OF_PERICENTER,MEAN_ANOMALY,EPHEMERIS_TYPE,CLASSIFICATION_TYPE,NORAD_CAT_ID,ELEMENT_SET_NO,REV_AT_EPOCH,BSTAR,MEAN_MOTION_DOT,MEAN_MOTION_DDOT
SAUDISAT 1C (SO-50),2002-058C,2026-07-05T07:03:53.749440,14.83086679,.00748049,64.5520,72.9616,259.0885,100.1798,0,U,27607,999,26714,.16659148E-3,.1271E-4,0
SAUDISAT 2,2004-025F,2026-07-05T05:33:27.135648,14.56694803,.00235863,98.5513,186.6801,239.9733,119.9124,0,U,28371,999,16837,.91112996E-4,.359E-5,0
SAUDISAT 3,2007-012B,2026-07-04T19:16:37.128864,14.71436735,.00148872,98.1462,136.2161,166.2917,193.8697,0,U,31118,999,3033,.77060953E-4,.427E-5,0
PISAT,2016-059B,2026-07-05T11:12:23.628096,14.69018347,.00298563,97.8184,186.1346,144.6576,215.6617,0,U,41784,999,52242,.22510259E-3,.1282E-4,0
FLYING LAPTOP,2017-042G,2026-07-05T15:34:31.654272,15.01269508,.00199601,97.4777,341.4815,62.8836,297.4422,0,U,42831,999,48922,.31558037E-3,.4016E-4,0
SALSAT,2020-068K,2026-07-05T11:00:35.368416,15.30074171,.00082854,97.8857,190.6390,230.3359,129.7150,0,U,46495,999,31815,.36136487E-3,.10448E-3,0
